NORAD_CAT_ID,OBJECT_NAME,OBJECT_TYPE,EPOCH,MEAN_MOTION,ECCENTRICITY,INCLINATION,RA_OF_ASC_NODE,ARG_OF_PERICENTER,MEAN_ANOMALY,BSTAR,MEAN_MOTION_DOT,MEAN_MOTION_DDOT,TLE_LINE0,TLE_LINE1,TLE_LINE2,SEMIMAJOR_AXIS,PERIOD,APOGEE,PERIGEE,DECAYED
51128.0,STARLINK-3400,PAYLOAD,2022-01-24 16:00:00,15.94431519,0.0053737,53.2183,247.5721,184.2978,37.7253,-0.0016995,-0.00762994,0.00019263,0 STARLINK-3400,1 51128U 22005AA  22024.66667824 -.00762994  19263-3 -16995-2 0  9996,2 51128  53.2183 247.5721 0053737 184.2978  37.7253 15.94431519  2194,6668.036,90.314,325.733,254.069,0.0
51128.0,STARLINK-3400,PAYLOAD,2022-01-24 22:00:00,15.9405212,0.0051578999999999,53.2176,246.2978,184.5356,33.1574,-0.0019925,-0.00864393,0.00024006,0 STARLINK-3400,1 51128U 22005AA  22024.91667824 -.00864393  24006-3 -19925-2 0  9997,2 51128  53.2176 246.2978 0051579 184.5356  33.1574 15.94052120  2228,6669.094,90.336,325.357,256.56,0.0
51128.0,STARLINK-3400,PAYLOAD,2022-01-25 06:00:00,15.93490531,0.0049455,53.2173,244.5965,186.2597,145.0741,-0.0021993,-0.00914054,0.00026401,0 STARLINK-3400,1 51128U 22005AA  22025.25001157 -.00914054  26401-3 -21993-2 0  9995,2 51128  53.2173 244.5965 0049455 186.2597 145.0741 15.93490531  2284,6670.661,90.368,325.515,259.536,0.0
51128.0,STARLINK-3400,PAYLOAD,2022-01-25 14:00:01,15.92899829,0.0046279,53.2174,242.8963,187.673,256.6078,-0.0022779,-0.00902619,0.00025657,0 STARLINK-3400,1 51128U 22005AA  22025.58334491 -.00902619  25657-3 -22779-2 0  9990,2 51128  53.2174 242.8963 0046279 187.6730 256.6078 15.92899829  2339,6672.31,90.401,325.0540000000001,263.296,0.0
51128.0,STARLINK-3400,PAYLOAD,2022-01-25 22:00:00,15.92296563,0.0043383999999999,53.2174,241.2012,189.7559,6.7709,-0.0022919,-0.00867946,0.00023767,0 STARLINK-3400,1 51128U 22005AA  22025.91667824 -.00867946  23767-3 -22919-2 0  9995,2 51128  53.2174 241.2012 0043384 189.7559   6.7709 15.92296563  2389,6673.995,90.435,324.814,266.905,0.0
51128.0,STARLINK-3400,PAYLOAD,2022-01-26 06:00:00,15.91728898,0.0041162,53.2175,239.5042,190.5987,117.4592,-0.0024892,-0.00905617,0.00025517,0 STARLINK-3400,1 51128U 22005AA  22026.25001157 -.00905617  25517-3 -24892-2 0  9999,2 51128  53.2175 239.5042 0041162 190.5987 117.4592 15.91728898  2447,6675.581999999999,90.468,324.925,269.969,0.0
51128.0,STARLINK-3400,PAYLOAD,2022-01-26 14:00:01,15.91147892,0.0037803,53.2177,237.8086,193.7903,225.0989,-0.002626,-0.00914564,0.00025827,0 STARLINK-3400,1 51128U 22005AA  22026.58334491 -.00914564  25827-3 -26260-2 0  9991,2 51128  53.2177 237.8086 0037803 193.7903 225.0989 15.91147892  2498,6677.206999999999,90.501,324.313,273.83,0.0
51128.0,STARLINK-3400,PAYLOAD,2022-01-26 19:47:02,15.90932566,0.0039066,53.224,236.5899,197.6296,162.3379,-0.0003514,-0.00124937,1.5995e-05,0 STARLINK-3400,1 51128U 22005AA  22026.82433646 -.00124937  15995-4 -35140-3 0  9991,2 51128  53.2240 236.5899 0039066 197.6296 162.3379 15.90932566  1414,6677.809,90.513,325.762,273.586,0.0
51128.0,STARLINK-3400,PAYLOAD,2022-01-26 22:00:00,15.90543203,0.0034451,53.2176,236.1177,196.46400000000003,332.5595,-0.0026268,-0.00876521,0.00023783,0 STARLINK-3400,1 51128U 22005AA  22026.91667824 -.00876521  23783-3 -26268-2 0  9994,2 51128  53.2176 236.1177 0034451 196.4640 332.5595 15.90543203  2542,6678.899,90.535,323.773,277.754,0.0
51128.0,STARLINK-3400,PAYLOAD,2022-01-27 01:48:59,15.90465038,0.0036251,53.2233,235.3101,198.3277,161.6447,-0.00027192,-0.00094276,1.3797e-05,0 STARLINK-3400,1 51128U 22005AA  22027.07568727 -.00094276  13797-4 -27192-3 0  9996,2 51128  53.2233 235.3101 0036251 198.3277 161.6447 15.90465038  2570,6679.118,90.54,325.195,276.77,0.0
51128.0,STARLINK-3400,PAYLOAD,2022-01-27 14:00:01,15.89393167,0.0029722,53.2177,232.7339,201.159,186.0033,-0.0029731,-0.00921345,0.00025739,0 STARLINK-3400,1 51128U 22005AA  22027.58334491 -.00921345  25739-3 -29731-2 0  9995,2 51128  53.2177 232.7339 0029722 201.1590 186.0033 15.89393167  1793,6682.12,90.601,323.846,284.125,0.0
51128.0,STARLINK-3400,PAYLOAD,2022-01-27 22:00:00,15.88792841,0.0026537,53.2177,231.0473,204.6929,290.4897,-0.0029888,-0.00891334,0.00024109,0 STARLINK-3400,1 51128U 22005AA  22027.91667824 -.00891334  24109-3 -29888-2 0  9998,2 51128  53.2177 231.0473 0026537 204.6929 290.4897 15.88792841  2700,6683.803000000001,90.635,323.405,287.931,0.0
51128.0,STARLINK-3400,PAYLOAD,2022-01-28 06:00:02,15.88203341,0.0024594,53.2175,229.3585,207.8844,34.6792,-0.0030693,-0.00884617,0.00023651,0 STARLINK-3400,1 51128U 22005AA  22028.25002315 -.00884617  23651-3 -30693-2 0  9997,2 51128  53.2175 229.3585 0024594 207.8844  34.6792 15.88203341  2764,6685.456999999999,90.668,323.764,290.88,0.0
51128.0,STARLINK-3400,PAYLOAD,2022-01-28 10:00:00,15.87917389,0.0022936,53.2173,228.5148,209.9227,265.9649,-0.0031763,-0.00899168,0.00024293,0 STARLINK-3400,1 51128U 22005AA  22028.41667824 -.00899168  24293-3 -31763-2 0  9996,2 51128  53.2173 228.5148 0022936 209.9227 265.9649 15.87917389  2789,6686.26,90.685,323.46,292.789,0.0
51128.0,STARLINK-3400,PAYLOAD,2022-01-28 12:00:00,15.87760681,0.0022422,53.2173,228.0931,209.9751,22.5462,-0.0031271,-0.00877619,0.00023219,0 STARLINK-3400,1 51128U 22005AA  22028.50001157 -.00877619  23219-3 -31271-2 0  9995,2 51128  53.2173 228.0931 0022422 209.9751  22.5462 15.87760681  1933,6686.7,90.694,323.558,293.572,0.0
51128.0,STARLINK-3400,PAYLOAD,2022-01-28 20:00:01,15.8719354,0.0020112,53.2173,226.4107,215.5409,123.053,-0.0033766999999999,-0.00917025,0.00025003,0 STARLINK-3400,1 51128U 22005AA  22028.83334491 -.00917025  25003-3 -33767-2 0  9992,2 51128  53.2173 226.4107 0020112 215.5409 123.0530 15.87193540  2856,6688.292,90.726,323.6090000000001,296.706,0.0
51128.0,STARLINK-3400,PAYLOAD,2022-01-28 22:00:00,15.870438,0.0019438,53.2175,225.9901,216.5485,238.4563,-0.0033783,-0.00909705,0.00024609,0 STARLINK-3400,1 51128U 22005AA  22028.91667824 -.00909705  24609-3 -33783-2 0  9995,2 51128  53.2175 225.9901 0019438 216.5485 238.4563 15.87043800  2005,6688.7130000000025,90.735,323.58,297.577,0.0
51128.0,STARLINK-3400,PAYLOAD,2022-01-29 14:00:01,15.85869123,0.0014933,53.2178,222.6237,227.4816,77.2219,-0.0035743,-0.00826268,0.0,0 STARLINK-3400,1 51128U 22005AA  22029.58334491 -.00826268  00000-0 -35743-2 0  9996,2 51128  53.2178 222.6237 0014933 227.4816  77.2219 15.85869123  2973,6692.016,90.802,323.874,303.887,0.0
51128.0,STARLINK-3400,PAYLOAD,2022-01-29 22:00:00,15.85292105,0.0012703,53.2176,220.9459,237.0425,171.4491,-0.0037674,-0.00842334,0.0,0 STARLINK-3400,1 51128U 22005AA  22029.91667824 -.00842334  00000-0 -37674-2 0  9999,2 51128  53.2176 220.9459 0012703 237.0425 171.4491 15.85292105  2164,6693.639,90.835,324.007,307.001,0.0
51128.0,STARLINK-3400,PAYLOAD,2022-01-30 06:00:00,15.84693239,0.0011078,53.2174,219.2656,245.3705,266.2147,-0.0037678,-0.00818645,0.0,0 STARLINK-3400,1 51128U 22005AA  22030.25001157 -.00818645  00000-0 -37678-2 0  9991,2 51128  53.2174 219.2656 0011078 245.3705 266.2147 15.84693239  3073,6695.326,90.869,324.608,309.774,0.0
51128.0,STARLINK-3400,PAYLOAD,2022-01-30 14:00:01,15.84102062,0.0009332,53.2175,217.5883,258.1779,355.7933,-0.0038297,-0.00808009,0.0,0 STARLINK-3400,1 51128U 22005AA  22030.58334491 -.00808009  00000-0 -38297-2 0  9998,2 51128  53.2175 217.5883 0009332 258.1779 355.7933 15.84102062  2277,6696.991,90.903,325.106,312.607,0.0
51128.0,STARLINK-3400,PAYLOAD,2022-01-30 22:00:00,15.83522203,0.0007546,53.2176,215.9147,268.1068,87.5412,-0.0040006999999999,-0.00818494,0.0,0 STARLINK-3400,1 51128U 22005AA  22030.91667824 -.00818494  00000-0 -40007-2 0  9995,2 51128  53.2176 215.9147 0007546 268.1068  87.5412 15.83522203  2320,6698.626,90.937,325.546,315.436,0.0
51128.0,STARLINK-3400,PAYLOAD,2022-01-31 06:00:00,15.8287003,0.0005627,53.2186,214.2402,266.2982,190.3626,-0.0036776,-0.00735177,0.0,0 STARLINK-3400,1 51128U 22005AA  22031.25001157 -.00735177  00000-0 -36776-2 0  9998,2 51128  53.2186 214.2402 0005627 266.2982 190.3626 15.82870030  3233,6700.465999999999,90.974,326.101,318.561,0.0
51128.0,STARLINK-3400,PAYLOAD,2022-01-31 12:00:00,15.82508265,0.0003749,53.2176,212.9834,259.8174,182.0739,-0.0043117,-0.00836423,0.0,0 STARLINK-3400,1 51128U 22005AA  22031.50001157 -.00836423  00000-0 -43117-2 0  9999,2 51128  53.2176 212.9834 0003749 259.8174 182.0739 15.82508265  3275,6701.486999999999,90.995,325.8640000000001,320.84,0.0
51128.0,STARLINK-3400,PAYLOAD,2022-01-31 14:00:01,15.82352609,0.0003039,53.2178,212.5658,255.9071,301.0553,-0.0042593,-0.00821305,0.0,0 STARLINK-3400,1 51128U 22005AA  22031.58335648 -.00821305  00000-0 -42593-2 0  9992,2 51128  53.2178 212.5658 0003039 255.9071 301.0553 15.82352609  2435,6701.927,91.004,325.828,321.755,0.0
51128.0,STARLINK-3400,PAYLOAD,2022-01-31 22:00:01,15.81757755,5.39e-05,53.2174,210.8965,260.3381,36.1944,-0.0042901,-0.00805033,0.0,0 STARLINK-3400,1 51128U 22005AA  22031.91668981 -.00805033  00000-0 -42901-2 0  9991,2 51128  53.2174 210.8965 0000539 260.3381  36.1944 15.81757755  2484,6703.607,91.038,325.833,325.11,0.0
51128.0,STARLINK-3400,PAYLOAD,2022-02-01 06:00:00,15.81181312,6.790000000000001e-05,53.2174,209.2247,86.01299999999998,309.3152,-0.0045022,-0.00820863,0.0,0 STARLINK-3400,1 51128U 22005AA  22032.25001157 -.00820863  00000-0 -45022-2 0  9990,2 51128  53.2174 209.2247 0000679  86.0130 309.3152 15.81181312  3396,6705.236,91.071,327.556,326.646,0.0
51128.0,STARLINK-3400,PAYLOAD,2022-02-01 14:00:01,15.80594042,0.0001207,53.2176,207.5563,59.4108,74.1431,-0.004612,-0.00818604,0.0,0 STARLINK-3400,1 51128U 22005AA  22032.58335648 -.00818604  00000-0 -46120-2 0  9991,2 51128  53.2176 207.5563 0001207  59.4108  74.1431 15.80594042  2592,6706.897,91.105,329.571,327.952,0.0
51128.0,STARLINK-3400,PAYLOAD,2022-02-01 22:00:00,15.80005844,0.0001137,53.2176,205.8911,81.3831,149.5605,-0.0047142,-0.0081465,0.0,0 STARLINK-3400,1 51128U 22005AA  22032.91667824 -.00814650  00000-0 -47142-2 0  9994,2 51128  53.2176 205.8911 0001137  81.3831 149.5605 15.80005844  2642,6708.561,91.139,331.189,329.663,0.0
